{
    "links": {
        "self": "http://www.neowsapp.com/rest/v1/neo/3742882?api_key=iIulBulltgU6a56xZRHN4H3l9WmuAYTsLGpBGhQ2"
    },
    "id": "3742882",
    "neo_reference_id": "3742882",
    "name": "(2016 CL137)",
    "designation": "2016 CL137",
    "nasa_jpl_url": "http://ssd.jpl.nasa.gov/sbdb.cgi?sstr=3742882",
    "absolute_magnitude_h": 25.8,
    "estimated_diameter": {
        "kilometers": {
            "estimated_diameter_min": 0.0183888672,
            "estimated_diameter_max": 0.0411187571
        },
        "meters": {
            "estimated_diameter_min": 18.388867207,
            "estimated_diameter_max": 41.1187571041
        },
        "miles": {
            "estimated_diameter_min": 0.0114263088,
            "estimated_diameter_max": 0.0255500032
        },
        "feet": {
            "estimated_diameter_min": 60.3309310875,
            "estimated_diameter_max": 134.9040630575
        }
    },
    "is_potentially_hazardous_asteroid": false,
    "close_approach_data": [
        {
            "close_approach_date": "2016-02-05",
            "close_approach_date_full": "2016-Feb-05 11:34",
            "epoch_date_close_approach": 1454672040000,
            "relative_velocity": {
                "kilometers_per_second": "21.9720650276",
                "kilometers_per_hour": "79099.4340993953",
                "miles_per_hour": "49149.3122602604"
            },
            "miss_distance": {
                "astronomical": "0.0040411635",
                "lunar": "1.5720126015",
                "kilometers": "604549.451921745",
                "miles": "375649.610320281"
            },
            "orbiting_body": "Moon"
        },
        {
            "close_approach_date": "2016-02-05",
            "close_approach_date_full": "2016-Feb-05 15:33",
            "epoch_date_close_approach": 1454686380000,
            "relative_velocity": {
                "kilometers_per_second": "21.3701873835",
                "kilometers_per_hour": "76932.6745807044",
                "miles_per_hour": "47802.972158216"
            },
            "miss_distance": {
                "astronomical": "0.004643673",
                "lunar": "1.806388797",
                "kilometers": "694683.58977651",
                "miles": "431656.366515438"
            },
            "orbiting_body": "Earth"
        },
        {
            "close_approach_date": "2079-07-14",
            "close_approach_date_full": "2079-Jul-14 15:06",
            "epoch_date_close_approach": 3456572760000,
            "relative_velocity": {
                "kilometers_per_second": "31.6027347776",
                "kilometers_per_hour": "113769.845199499",
                "miles_per_hour": "70692.1574240998"
            },
            "miss_distance": {
                "astronomical": "0.344817122",
                "lunar": "134.133860458",
                "kilometers": "51583906.99073014",
                "miles": "32052753.498110332"
            },
            "orbiting_body": "Earth"
        }
    ],
    "orbital_data": {
        "orbit_id": "5",
        "orbit_determination_date": "2019-07-17 06:11:04",
        "first_observation_date": "2016-02-09",
        "last_observation_date": "2016-02-15",
        "data_arc_in_days": 6,
        "observations_used": 47,
        "orbit_uncertainty": "8",
        "minimum_orbit_intersection": ".00353179",
        "jupiter_tisserand_invariant": "3.569",
        "epoch_osculation": "2457431.5",
        "eccentricity": ".7105751936143645",
        "semi_major_axis": "1.916467470866499",
        "inclination": ".762638255965346",
        "ascending_node_longitude": "151.9276267843524",
        "orbital_period": "969.0598607530206",
        "perihelion_distance": ".5546732266999049",
        "perihelion_argument": "251.2336126721997",
        "aphelion_distance": "3.278261715033092",
        "perihelion_time": "2457377.911035504218",
        "mean_anomaly": "19.90798298413722",
        "mean_motion": ".3714940785188",
        "equinox": "J2000",
        "orbit_class": {
            "orbit_class_type": "APO",
            "orbit_class_description": "Near-Earth asteroid orbits which cross the Earth’s orbit similar to that of 1862 Apollo",
            "orbit_class_range": "a (semi-major axis) > 1.0 AU; q (perihelion) < 1.017 AU"
        }
    },
    "is_sentry_object": false
}